satname,norad_id,inclination_deg,eccentricity,mean_motion_rev_per_day,perigee_km,apogee_km,l1,l2
STARLINK-1331,45578,53.0537,0.0001518,15.06378667,546.2256634460846,548.328219118659,1 45578U 20025AZ  25318.20882817  .00027615  00000+0  18666-2 0  9992,2 45578  53.0537 235.0330 0001518  90.0199 270.0963 15.06378667308112
STARLINK-1333,45580,53.0546,0.0001667,15.06378511,546.1229528275144,548.4318859949462,1 45580U 20025BB  25318.81239868  .00002574  00000+0  19173-3 0  9996,2 45580  53.0546 242.3224 0001667  90.0298 270.0882 15.06378511308054
STARLINK-1335,45581,53.0534,0.0001468,15.06380577,546.2544373682667,548.2877371826908,1 45581U 20025BC  25318.08716520  .00009346  00000+0  64581-3 0  9998,2 45581  53.0534 235.5800 0001468  86.4771 273.6386 15.06380577308086
STARLINK-1337,45582,53.053,0.0001557,15.06402656,546.1251421897368,548.2816931958068,1 45582U 20025BD  25318.50738943  .00024259  00000+0  16418-2 0  9994,2 45582  53.0530 233.6945 0001557  74.1666 285.9494 15.06402656308144
STARLINK-1347,45586,53.0535,0.0009007,15.3373714,458.5107893813929,470.8374293137722,1 45586U 20025BH  25318.86410433  .00016329  00000+0  50324-3 0  9992,2 45586  53.0535 214.9421 0009007  68.1131 292.0827 15.33737140308432
STARLINK-1360,45588,53.0405,0.0002924,15.79209977,330.71558272946095,334.6400672391119,1 45588U 20025BK  25318.91670139  .00244139  00000+0  13005-2 0  9997,2 45588  53.0405 128.6916 0002924 193.3097 242.0554 15.79209977  5992
STARLINK-1364,45589,53.0532,0.0001104,15.06364498,546.5557980985541,548.0849390855392,1 45589U 20025BL  25318.17934557  .00026729  00000+0  18082-2 0  9996,2 45589  53.0532 235.1665 0001104 108.0070 252.1040 15.06364498308091
STARLINK-1365,45590,53.0587,0.0001259,15.06403438,546.3291209266381,548.0729210403215,1 45590U 20025BM  25318.85846867 -.00005864  00000+0 -37505-3 0  9990,2 45590  53.0587 262.1145 0001259 126.3196 233.7910 15.06403438307794
STARLINK-1443,45660,53.057,7.8e-05,15.06372953,546.7542706846771,547.8346379915538,1 45660U 20035D   25318.71104030  .00011776  00000+0  80871-3 0  9994,2 45660  53.0570 222.7784 0000780 108.4735 251.6339 15.06372953301406
STARLINK-1446,45663,53.0249,0.0002263,15.34829937,459.87788211009956,462.9734681768705,1 45663U 20035G   25318.85088681  .00016265  00000+0  48479-3 0  9991,2 45663  53.0249 182.2016 0002263  98.7607 261.3650 15.34829937301984
STARLINK-1448,45665,53.054,0.0002965,15.06430333,545.0652549385923,549.1719315053733,1 45665U 20035J   25318.44930913  .00003671  00000+0  26501-3 0  9991,2 45665  53.0540 223.9496 0002965 251.9003 108.1663 15.06430333301357
STARLINK-1451,45668,53.0531,0.0001781,15.06390318,546.007822169624,548.4746418958739,1 45668U 20035M   25318.71845054  .00022018  00000+0  14928-2 0  9990,2 45668  53.0531 223.0624 0001781 102.1544 257.9644 15.06390318301402
STARLINK-1452,45669,53.0399,0.0012278,15.27952217,473.5119745820866,490.357566822222,1 45669U 20035N   25318.69468328  .00013920  00000+0  51442-3 0  9998,2 45669  53.0399 202.0272 0012278  71.8111 288.4223 15.27952217301694
STARLINK-1453,45670,53.051,0.000179,15.06385695,546.0157558101428,548.4950462897177,1 45670U 20035P   25318.86123660  .00005489  00000+0  38728-3 0  9999,2 45670  53.0510 192.1049 0001790  95.2433 264.8760 15.06385695301732
STARLINK-1454,45671,53.0546,0.000182,15.06358044,546.0797131788104,548.6005868614175,1 45671U 20035Q   25318.47513992  .00014357  00000+0  98184-3 0  9994,2 45671  53.0546 223.8386 0001820  96.3023 263.8173 15.06358044301352
STARLINK-1456,45673,53.0554,0.0002327,15.06412267,545.5624417444151,548.7854814659449,1 45673U 20035S   25318.75523749  .00020137  00000+0  13664-2 0  9990,2 45673  53.0554 222.5820 0002327 107.2081 252.9163 15.06412267301414
STARLINK-1457,45674,53.0538,0.0001439,15.35923457,457.1952022326759,459.16269396253847,1 45674U 20035T   25318.91670139  .00126911  00000+0  35284-2 0  9994,2 45674  53.0538 220.2627 0001439 121.7131  92.6676 15.35923457  5641
STARLINK-1458,45675,53.0535,0.0001734,15.06359629,546.1344151067169,548.5361688975827,1 45675U 20035U   25318.75157051  .00008316  00000+0  57716-3 0  9993,2 45675  53.0535 222.5936 0001734  95.4066 264.7121 15.06359629301377
STARLINK-1460,45676,53.0529,0.0001405,15.06409213,546.2103140589224,548.156329069282,1 45676U 20035V   25318.45669793  .00027347  00000+0  18472-2 0  9992,2 45676  53.0529 223.9194 0001405  99.6622 260.4526 15.06409213301323
STARLINK-1392,45677,53.0534,0.0002316,15.06490957,545.3289556934942,548.5366480257162,1 45677U 20035W   25318.73312966  .00039958  00000+0  26796-2 0  9990,2 45677  53.0534 222.6813 0002316  69.3599 290.7638 15.06490957301407
STARLINK-1394,45679,53.0536,0.0001447,15.06372385,546.2940850455998,548.2983054122997,1 45679U 20035Y   25318.86308684  .00012281  00000+0  84253-3 0  9991,2 45679  53.0536 212.0957 0001447  86.7659 273.3495 15.06372385301566
STARLINK-1402,45685,53.0544,0.0003818,15.2823289,478.4759498401563,483.7136592461047,1 45685U 20035AE  25318.86620406  .00011403  00000+0  42096-3 0  9991,2 45685  53.0544 202.7137 0003818 127.8073 232.3272 15.28232890301703
STARLINK-1404,45686,53.0528,0.0001372,15.06400008,546.2613756006449,548.1616912382142,1 45686U 20035AF  25318.68984043  .00008954  00000+0  61924-3 0  9990,2 45686  53.0528 212.8768 0001372 120.0663 240.0462 15.06400008301544
STARLINK-1413,45689,53.0541,0.0001208,15.06325352,546.6037430108718,548.276962499297,1 45689U 20035AJ  25318.04479680  .00006889  00000+0  48190-3 0  9994,2 45689  53.0541 215.7674 0001208  79.2488 280.8637 15.06325352301351
STARLINK-1417,45693,53.053,0.0001694,15.0639811,546.0441954951457,548.3905055491032,1 45693U 20035AN  25318.83728259  .00002961  00000+0  21758-3 0  9993,2 45693  53.0530 212.2144 0001694  70.6528 289.4644 15.06398110301554
STARLINK-1420,45695,53.0498,0.0001538,15.06368503,546.2429599335492,548.3732268442764,1 45695U 20035AQ  25318.83814640 -.00008122  00000+0 -52741-3 0  9998,2 45695  53.0498 192.1980 0001538  89.4020 270.7145 15.06368503301849
STARLINK-1422,45696,53.0521,0.0002162,15.06367222,545.8147375309773,548.8093016870571,1 45696U 20035AR  25318.84834519  .00006385  00000+0  44755-3 0  9990,2 45696  53.0521 212.1645 0002162  96.6996 263.4239 15.06367222301552
STARLINK-1351,45697,53.0576,2.1e-05,15.06393627,547.0856576043625,547.3765230641566,1 45697U 20035AS  25317.69646540  .00008040  00000+0  55812-3 0  9994,2 45697  53.0576 197.3327 0000210   1.6462 358.4528 15.06393627301677
STARLINK-1398,45699,53.0481,0.0005154,15.54488944,400.1432859233846,407.1339402253416,1 45699U 20035AU  25318.91670139  .00117737  00000+0  17380-2 0  9994,2 45699  53.0481 146.7560 0005154 150.0016 133.1772 15.54488944  5914
STARLINK-1400,45700,53.0525,0.0001299,15.06371275,546.3999831111205,548.1992115391049,1 45700U 20035AV  25318.86490639 -.00009368  00000+0 -61129-3 0  9999,2 45700  53.0525 192.0871 0001299  73.5467 286.5665 15.06371275301840
STARLINK-1403,45701,53.054,0.0001225,15.06371657,546.4500606734209,548.1467923529171,1 45701U 20035AW  25318.82807414  .00011023  00000+0  75835-3 0  9997,2 45701  53.0540 192.2520 0001225  83.9804 276.1324 15.06371657301830
STARLINK-1407,45703,53.0387,0.0012356,15.43406234,427.6454393652275,444.4846955142839,1 45703U 20035AY  25318.55022330  .00024050  00000+0  53622-3 0  9999,2 45703  53.0387 148.5372 0012356 106.8953 253.3408 15.43406234302435
STARLINK-1411,45706,53.0515,0.000224,15.42982844,435.7848814377239,438.8382023844997,1 45706U 20035BB  25318.10967302  .00121016  00000+0  26718-2 0  9995,2 45706  53.0515 177.8273 0002240 172.9990 187.1047 15.42982844301978
STARLINK-1423,45710,53.0526,0.000138,15.06376121,546.329036400095,548.240452801605,1 45710U 20035BF  25318.85387002  .00009774  00000+0  67458-3 0  9998,2 45710  53.0526 192.1393 0001380  74.8913 285.2228 15.06376121301849
STARLINK-1433,45711,53.053,0.0001141,15.06384726,546.4681833321401,548.0485585557899,1 45711U 20035BG  25318.83544139  .00014024  00000+0  95891-3 0  9999,2 45711  53.0530 192.2196 0001141  95.0481 265.0638 15.06384726301837
STARLINK-1434,45712,53.0484,0.0007073,15.16369537,511.94708668573367,521.7006983642987,1 45712U 20035BH  25318.84060499  .00007739  00000+0  40925-3 0  9996,2 45712  53.0484 187.3983 0007073 104.9380 255.2397 15.16369537301919
STARLINK-1465,45731,53.0543,0.000137,15.06390384,546.2922529600191,548.189806540172,1 45731U 20038B   25318.47051823 -.00000823  00000+0 -36399-4 0  9990,2 45731  53.0543  33.8562 0001370 102.0855 258.0288 15.06390384298822
STARLINK-1471,45735,53.0514,9.31e-05,15.41705971,440.4392850619106,441.7090221787139,1 45735U 20038F   25318.75483378  .00022971  00000+0  54384-3 0  9998,2 45735  53.0514 329.3514 0000931  70.2461 289.8644 15.41705971299768
STARLINK-1474,45738,53.0352,0.0004252,15.69745166,356.76122378836317,362.4910175461782,1 45738U 20038J   25318.91670139  .00117426  00000+0  95860-3 0  9996,2 45738  53.0352 283.0842 0004252  44.8882 236.1192 15.69745166  5763
STARLINK-1475,45739,53.0471,0.0006993,15.86638315,307.0373960977595,316.3938239581439,1 45739U 20038K   25318.91670139  .00257168  00000+0  96370-3 0  9992,2 45739  53.0471 248.2257 0006993  85.9604 154.6312 15.86638315  6047
STARLINK-1480,45741,53.0554,0.0001559,15.06374373,546.2104280305939,548.3697762010343,1 45741U 20038M   25318.45208201  .00007911  00000+0  54975-3 0  9995,2 45741  53.0554  33.9399 0001559  81.6911 278.4255 15.06374373298839
STARLINK-1500,45744,53.0402,0.0001411,15.28408401,479.601922361986,481.53744938873933,1 45744U 20038Q   25318.56224375  .00023853  00000+0  86074-3 0  9998,2 45744  53.0402  10.0954 0001411 266.7500  93.3337 15.28408401299171
STARLINK-1504,45746,53.0288,0.0001971,15.41572911,440.1224017039476,442.810689421608,1 45746U 20038S   25318.45060911  .00026975  00000+0  63942-3 0  9999,2 45746  53.0288 333.9046 0001971 327.4384  32.6498 15.41572911299661
